start=new Date('2022-07-30T00:00:00.000Z').valueOf();
sats=[{"TLE_LINE2":"2 45785  53.0579 357.2628 0001541  72.3387 287.7771 15.06394895117978","REF_FRAME":"TEME","EPHEMERIS_TYPE":"0","RA_OF_ASC_NODE":"357.2628","CENTER_NAME":"EARTH","OBJECT_NAME":"STARLINK-1512","EPOCH":"2022-07-29T19:40:18.331968","RCS_SIZE":"LARGE","DECAY_DATE":null,"ELEMENT_SET_NO":"999","MEAN_ELEMENT_THEORY":"SGP4","SITE":"AFETR","REV_AT_EPOCH":"11797","MEAN_MOTION_DOT":"0.00000436","BSTAR":"0.00004819800000","TIME_SYSTEM":"UTC","MEAN_ANOMALY":"287.7771","CLASSIFICATION_TYPE":"U","INCLINATION":"53.0579","NORAD_CAT_ID":"45785","OBJECT_TYPE":"PAYLOAD","SEMIMAJOR_AXIS":"6925.364","FILE":"3524848","ECCENTRICITY":"0.00015410","PERIAPSIS":"546.162","COUNTRY_CODE":"US","ARG_OF_PERICENTER":"72.3387","APOAPSIS":"548.296","PERIOD":"95.592","TLE_LINE1":"1 45785U 20038BH  22210.81965662  .00000436  00000-0  48198-4 0  9999","OBJECT_ID":"2020-038BH","MEAN_MOTION_DDOT":"0.0000000000000","MEAN_MOTION":"15.06394895","GP_ID":"209130632","LAUNCH_DATE":"2020-06-13"},{"MEAN_MOTION_DDOT":"0.0000000000000","MEAN_MOTION":"15.06403986","LAUNCH_DATE":"2020-06-13","GP_ID":"209131367","ARG_OF_PERICENTER":"72.3689","APOAPSIS":"548.161","TLE_LINE1":"1 45786U 20038BJ  22210.80491028 -.00000457  00000-0 -11803-4 0  9997","PERIOD":"95.592","OBJECT_ID":"2020-038BJ","INCLINATION":"53.0571","CLASSIFICATION_TYPE":"U","OBJECT_TYPE":"PAYLOAD","SEMIMAJOR_AXIS":"6925.336","NORAD_CAT_ID":"45786","PERIAPSIS":"546.241","FILE":"3524848","ECCENTRICITY":"0.00013860","COUNTRY_CODE":"US","SITE":"AFETR","MEAN_ELEMENT_THEORY":"SGP4","REV_AT_EPOCH":"11797","BSTAR":"-0.00001180300000","MEAN_MOTION_DOT":"-0.00000457","MEAN_ANOMALY":"287.7451","TIME_SYSTEM":"UTC","DECAY_DATE":null,"ELEMENT_SET_NO":"999","OBJECT_NAME":"STARLINK-1513","EPOCH":"2022-07-29T19:19:04.248192","RCS_SIZE":"LARGE","EPHEMERIS_TYPE":"0","RA_OF_ASC_NODE":"357.3392","CENTER_NAME":"EARTH","TLE_LINE2":"2 45786  53.0571 357.3392 0001386  72.3689 287.7451 15.06403986117979","REF_FRAME":"TEME"},{"RA_OF_ASC_NODE":"357.3038","EPHEMERIS_TYPE":"0","CENTER_NAME":"EARTH","TLE_LINE2":"2 45787  53.0554 357.3038 0001310  73.6325 286.4808 15.06397464117971","REF_FRAME":"TEME","DECAY_DATE":null,"ELEMENT_SET_NO":"999","OBJECT_NAME":"STARLINK-1517","RCS_SIZE":"LARGE","EPOCH":"2022-07-29T19:29:41.649504","SEMIMAJOR_AXIS":"6925.356","OBJECT_TYPE":"PAYLOAD","NORAD_CAT_ID":"45787","INCLINATION":"53.0554","CLASSIFICATION_TYPE":"U","COUNTRY_CODE":"US","FILE":"3524848","PERIAPSIS":"546.314","ECCENTRICITY":"0.00013100","REV_AT_EPOCH":"11797","SITE":"AFETR","MEAN_ELEMENT_THEORY":"SGP4","MEAN_ANOMALY":"286.4808","TIME_SYSTEM":"UTC","MEAN_MOTION_DOT":"-0.00000590","BSTAR":"-0.00002072000000","MEAN_MOTION":"15.06397464","MEAN_MOTION_DDOT":"0.0000000000000","GP_ID":"209130134","LAUNCH_DATE":"2020-06-13","TLE_LINE1":"1 45787U 20038BK  22210.81228761 -.00000590  00000-0 -20720-4 0  9997","PERIOD":"95.592","APOAPSIS":"548.129","ARG_OF_PERICENTER":"73.6325","OBJECT_ID":"2020-038BK"},{"SEMIMAJOR_AXIS":"6925.354","OBJECT_TYPE":"PAYLOAD","NORAD_CAT_ID":"46027","CLASSIFICATION_TYPE":"U","INCLINATION":"53.0563","COUNTRY_CODE":"US","FILE":"3524848","PERIAPSIS":"546.389","ECCENTRICITY":"0.00011990","REV_AT_EPOCH":"11007","MEAN_ELEMENT_THEORY":"SGP4","SITE":"AFETR","TIME_SYSTEM":"UTC","MEAN_ANOMALY":"283.8596","BSTAR":"0.00008363200000","MEAN_MOTION_DOT":"0.00000964","MEAN_MOTION":"15.06398103","MEAN_MOTION_DDOT":"0.0000000000000","LAUNCH_DATE":"2020-08-07","GP_ID":"209130158","PERIOD":"95.592","TLE_LINE1":"1 46027U 20055A   22210.65287233  .00000964  00000-0  83632-4 0  9999","ARG_OF_PERICENTER":"76.2527","APOAPSIS":"548.050","OBJECT_ID":"2020-055A","RA_OF_ASC_NODE":"288.0017","EPHEMERIS_TYPE":"0","CENTER_NAME":"EARTH","TLE_LINE2":"2 46027  53.0563 288.0017 0001199  76.2527 283.8596 15.06398103110074","REF_FRAME":"TEME","DECAY_DATE":null,"ELEMENT_SET_NO":"999","OBJECT_NAME":"STARLINK-1522","RCS_SIZE":"LARGE","EPOCH":"2022-07-29T15:40:08.169312"},{"CENTER_NAME":"EARTH","EPHEMERIS_TYPE":"0","RA_OF_ASC_NODE":"288.5232","REF_FRAME":"TEME","TLE_LINE2":"2 46028  53.0553 288.5232 0001404  72.7911 287.3232 15.06393132110078","ELEMENT_SET_NO":"999","DECAY_DATE":null,"EPOCH":"2022-07-29T12:50:17.640960","RCS_SIZE":"LARGE","OBJECT_NAME":"STARLINK-1523","FILE":"3524848","PERIAPSIS":"546.262","ECCENTRICITY":"0.00014040","COUNTRY_CODE":"US","CLASSIFICATION_TYPE":"U","INCLINATION":"53.0553","OBJECT_TYPE":"PAYLOAD","NORAD_CAT_ID":"46028","SEMIMAJOR_AXIS":"6925.370","BSTAR":"0.00002196500000","MEAN_MOTION_DOT":"0.00000046","TIME_SYSTEM":"UTC","MEAN_ANOMALY":"287.3232","MEAN_ELEMENT_THEORY":"SGP4","SITE":"AFETR","REV_AT_EPOCH":"11007","GP_ID":"209130407","LAUNCH_DATE":"2020-08-07","MEAN_MOTION_DDOT":"0.0000000000000","MEAN_MOTION":"15.06393132","OBJECT_ID":"2020-055B","APOAPSIS":"548.207","ARG_OF_PERICENTER":"72.7911","PERIOD":"95.593","TLE_LINE1":"1 46028U 20055B   22210.53492640  .00000046  00000-0  21965-4 0  9999"},{"OBJECT_ID":"2020-055C","ARG_OF_PERICENTER":"71.0694","APOAPSIS":"548.144","TLE_LINE1":"1 46029U 20055C   22210.59390589 -.00000393  00000-0 -75182-5 0  9993","PERIOD":"95.593","GP_ID":"209131156","LAUNCH_DATE":"2020-08-07","MEAN_MOTION_DDOT":"0.0000000000000","MEAN_MOTION":"15.06390043","BSTAR":"-0.00000751820000","MEAN_MOTION_DOT":"-0.00000393","MEAN_ANOMALY":"289.0436","TIME_SYSTEM":"UTC","SITE":"AFETR","MEAN_ELEMENT_THEORY":"SGP4","REV_AT_EPOCH":"11007","PERIAPSIS":"546.344","FILE":"3524848","ECCENTRICITY":"0.00013000","COUNTRY_CODE":"US","INCLINATION":"53.0538","CLASSIFICATION_TYPE":"U","SEMIMAJOR_AXIS":"6925.379","OBJECT_TYPE":"PAYLOAD","NORAD_CAT_ID":"46029","EPOCH":"2022-07-29T14:15:13.468896","RCS_SIZE":"LARGE","OBJECT_NAME":"STARLINK-1526","ELEMENT_SET_NO":"999","DECAY_DATE":null,"REF_FRAME":"TEME","TLE_LINE2":"2 46029  53.0538 288.2645 0001300  71.0694 289.0436 15.06390043110075","CENTER_NAME":"EARTH","EPHEMERIS_TYPE":"0","RA_OF_ASC_NODE":"288.2645"},{"CLASSIFICATION_TYPE":"U","INCLINATION":"53.0548","OBJECT_TYPE":"PAYLOAD","NORAD_CAT_ID":"46030","SEMIMAJOR_AXIS":"6925.332","PERIAPSIS":"546.168","FILE":"3524848","ECCENTRICITY":"0.00014860","COUNTRY_CODE":"US","MEAN_ELEMENT_THEORY":"SGP4","SITE":"AFETR","REV_AT_EPOCH":"11003","BSTAR":"-0.00001020500000","MEAN_MOTION_DOT":"-0.00000434","TIME_SYSTEM":"UTC","MEAN_ANOMALY":"288.7847","MEAN_MOTION_DDOT":"0.0000000000000","MEAN_MOTION":"15.06405335","LAUNCH_DATE":"2020-08-07","GP_ID":"209130892","ARG_OF_PERICENTER":"71.3303","APOAPSIS":"548.226","PERIOD":"95.592","TLE_LINE1":"1 46030U 20055D   22210.61232638 -.00000434  00000-0 -10205-4 0  9998","OBJECT_ID":"2020-055D","EPHEMERIS_TYPE":"0","RA_OF_ASC_NODE":"288.1960","CENTER_NAME":"EARTH","TLE_LINE2":"2 46030  53.0548 288.1960 0001486  71.3303 288.7847 15.06405335110031","REF_FRAME":"TEME","DECAY_DATE":null,"ELEMENT_SET_NO":"999","OBJECT_NAME":"STARLINK-1534","EPOCH":"2022-07-29T14:41:44.999232","RCS_SIZE":"LARGE"},{"BSTAR":"0.00001380100000","MEAN_MOTION_DOT":"-0.00000076","MEAN_ANOMALY":"302.1975","TIME_SYSTEM":"UTC","SITE":"AFETR","MEAN_ELEMENT_THEORY":"SGP4","REV_AT_EPOCH":"11006","FILE":"3524848","ECCENTRICITY":"0.00013490","PERIAPSIS":"546.269","COUNTRY_CODE":"US","INCLINATION":"53.0554","CLASSIFICATION_TYPE":"U","OBJECT_TYPE":"PAYLOAD","SEMIMAJOR_AXIS":"6925.338","NORAD_CAT_ID":"46031","OBJECT_ID":"2020-055E","APOAPSIS":"548.138","ARG_OF_PERICENTER":"57.9144","TLE_LINE1":"1 46031U 20055E   22210.61506965 -.00000076  00000-0  13801-4 0  9992","PERIOD":"95.592","LAUNCH_DATE":"2020-08-07","GP_ID":"209129659","MEAN_MOTION_DDOT":"0.0000000000000","MEAN_MOTION":"15.06403340","REF_FRAME":"TEME","TLE_LINE2":"2 46031  53.0554 288.1671 0001349  57.9144 302.1975 15.06403340110069","CENTER_NAME":"EARTH","EPHEMERIS_TYPE":"0","RA_OF_ASC_NODE":"288.1671","EPOCH":"2022-07-29T14:45:42.017760","RCS_SIZE":"LARGE","OBJECT_NAME":"STARLINK-1544","ELEMENT_SET_NO":"999","DECAY_DATE":null},{"ELEMENT_SET_NO":"999","DECAY_DATE":null,"EPOCH":"2022-07-29T15:29:30.564960","RCS_SIZE":"LARGE","OBJECT_NAME":"STARLINK-1555","CENTER_NAME":"EARTH","EPHEMERIS_TYPE":"0","RA_OF_ASC_NODE":"288.0476","REF_FRAME":"TEME","TLE_LINE2":"2 46032  53.0550 288.0476 0001537  63.7260 296.3887 15.06397653110088","GP_ID":"209129909","LAUNCH_DATE":"2020-08-07","MEAN_MOTION_DDOT":"0.0000000000000","MEAN_MOTION":"15.06397653","OBJECT_ID":"2020-055F","APOAPSIS":"548.285","ARG_OF_PERICENTER":"63.7260","TLE_LINE1":"1 46032U 20055F   22210.64549265  .00000105  00000-0  25954-4 0  9990","PERIOD":"95.592","ECCENTRICITY":"0.00015370","FILE":"3524848","PERIAPSIS":"546.156","COUNTRY_CODE":"US","CLASSIFICATION_TYPE":"U","INCLINATION":"53.0550","OBJECT_TYPE":"PAYLOAD","SEMIMAJOR_AXIS":"6925.356","NORAD_CAT_ID":"46032","BSTAR":"0.00002595400000","MEAN_MOTION_DOT":"0.00000105","TIME_SYSTEM":"UTC","MEAN_ANOMALY":"296.3887","MEAN_ELEMENT_THEORY":"SGP4","SITE":"AFETR","REV_AT_EPOCH":"11008"},{"MEAN_MOTION":"15.06401832","MEAN_MOTION_DDOT":"0.0000000000000","GP_ID":"209130657","LAUNCH_DATE":"2020-08-07","PERIOD":"95.592","TLE_LINE1":"1 46033U 20055G   22210.69341304 -.00001275  00000-0 -66696-4 0  9999","ARG_OF_PERICENTER":"78.8826","APOAPSIS":"548.012","OBJECT_ID":"2020-055G","NORAD_CAT_ID":"46033","OBJECT_TYPE":"PAYLOAD","SEMIMAJOR_AXIS":"6925.343","INCLINATION":"53.0540","CLASSIFICATION_TYPE":"U","COUNTRY_CODE":"US","FILE":"3524848","PERIAPSIS":"546.404","ECCENTRICITY":"0.00011610","REV_AT_EPOCH":"11006","SITE":"AFETR","MEAN_ELEMENT_THEORY":"SGP4","MEAN_ANOMALY":"281.2293","TIME_SYSTEM":"UTC","MEAN_MOTION_DOT":"-0.00001275","BSTAR":"-0.00006669600000","DECAY_DATE":null,"ELEMENT_SET_NO":"999","OBJECT_NAME":"STARLINK-1556","RCS_SIZE":"LARGE","EPOCH":"2022-07-29T16:38:30.886656","RA_OF_ASC_NODE":"287.8356","EPHEMERIS_TYPE":"0","CENTER_NAME":"EARTH","TLE_LINE2":"2 46033  53.0540 287.8356 0001161  78.8826 281.2293 15.06401832110067","REF_FRAME":"TEME"}];
